ONEWEB-0645             
1 55809U 23029P   24284.44283046  .00000214  00000+0  50226-3 0  9998
2 55809  87.9137  67.2384 0002224 105.5793 254.5585 13.19725019 77820
ONEWEB-0646             
1 55810U 23029Q   24284.47283544  .00000229  00000+0  53864-3 0  9993
2 55810  87.9136  67.2300 0002034  94.1375 265.9990 13.19724377 77818
ONEWEB-0648             
1 55811U 23029R   24284.38516537 -.00000112  00000+0 -33742-3 0  9991
2 55811  87.8997  51.9578 0002789 107.1677 252.9759 13.14505599 78624
ONEWEB-0649             
1 55812U 23029S   24284.43572625  .00000171  00000+0  39377-3 0  9991
2 55812  87.9131  67.2306 0002314 102.4386 257.7006 13.19727018 77842
ONEWEB-0650             
1 55813U 23029T   24284.43098575  .00000198  00000+0  46331-3 0  9996
2 55813  87.9139  67.2363 0002037  93.3944 266.7422 13.19726820 77813
ONEWEB-0652             
1 55814U 23029U   24284.59449554  .00000170  00000+0  42510-3 0  9996
2 55814  87.8998  51.9271 0001589  99.2848 260.8461 13.14503719 78626
ONEWEB-0653             
1 55815U 23029V   24284.80697900  .00000337  00000+0  87342-3 0  9998
2 55815  87.9001  51.8679 0001542 108.8101 251.3196 13.14507228 79374
ONEWEB-0654             
1 55816U 23029W   24284.42163505  .00000426  00000+0  11141-2 0  9998
2 55816  87.8993  51.9516 0001285 103.8611 256.2662 13.14506361 78659
